#dP2023 12 13  0  0  0.00000000      97 __u+U IGS20 FIT  IAC
## 2292 259200.00000000   900.00000000 60291 0.0000000000000
+  118   C06C07C08C09C10C11C12C13C14C16C19C20C21C22C23C24C25
+        C26C27C28C29C30C32C33C34C35C36C37C38C39C40C41C42C43
+        C44C45C46E02E03E04E05E07E08E09E10E11E12E13E15E18E19
+        E21E24E25E26E27E30E31E33E34E36G01G02G03G04G05G06G07
+        G08G09G10G11G12G13G14G15G16G17G18G19G20G21G22G23G24
+        G25G26G27G28G29G30G31G32J02J03J04R01R02R03R04R05R07
+        R08R09R11R12R13R14R15R16R17R18R19R20R21R22R24R26  0
++         7  9  7  7  9  7  6  7  7  7  6  6  6  6  5  5  5
++         5  5  5  6  6  5  6  6  5  6  5  6  6  6  5  6  6
++         6  6  6  4  4  4  4  4  4  4  4  4  4  4  4  4  4
++         4  4  4  4  4  4  4  4  4  4  4  3  3  3  4  3  3
++         3  3  3  4  3  3  3  3  4  3  3  3  4  3  3  3  3
++         3  4  6  3  3  3  3  3  9  9  9  7  7  7  7  7  7
++         6  6  7  7  8  7  7  7  7  7  8  8  7  7  7  7  0
%c M  cc GPS ccc cccc cccc cccc cccc ccccc ccccc ccccc ccccc
%c cc cc ccc ccc cccc cccc cccc cccc ccccc ccccc ccccc ccccc
%f  1.2500000  1.025000000  0.00000000000  0.000000000000000
%f  0.0000000  0.000000000  0.00000000000  0.000000000000000
%i    0    0    0    0      0      0      0      0         0
%i    0    0    0    0      0      0      0      0         0
/* INFORMATION & ANALYSIS CENTER (IAC)            FINAL DATA
/* S/V CLOCKS ARE ALIGNED TO GNSS TIME                      
/* G:C1WC2W R:C1PC2P E:C1XC5X C:C2IC6I J:C1CC2S             
/* PCV:IGS20_2290 OL/AL:FES2004  NONE     YN ORB:CoN CLK:CoN
*  2023 12 13 10 30  0.00000000
PC06 -14200.795994  39469.234046   2215.941904    205.980483
PC07  -2186.128897  31469.591345  28145.412063   -467.541543
PC08 -14903.374664  21353.423737 -33232.749270    183.382854
PC09  -7036.845913  39064.215527  13740.896154   -211.677663
PC10   5931.004157  34382.363787  24360.259187    -51.771539
PC11  15115.758323 -10413.660090 -20938.218833    304.105435
PC12  13388.834809  11323.643420 -21662.314198    827.448594
PC13  -8251.201186  22903.462505 -34327.408067    395.102032
PC14  20663.161125  -1386.235580  18739.128239   -257.382224
PC16 -15159.933500  39158.438509    556.812221   -223.896248
PC19 -13521.822598   9255.673559 -22566.011321   -953.093682
PC20 -23903.158654  -5357.886167 -13340.232191     32.994183
PC21  20697.386919  18090.706656  -4845.284987   -967.755791
PC22   5223.994437  19426.056884 -19354.616560   -188.404687
PC23   7362.058551 -18918.006485 -19148.354464   -804.706222
PC24  25109.624968  -2629.918621  11834.954887    688.122459
PC25  22077.252501 -16030.837583  -5817.515814    277.081246
PC26  13604.172006  10718.263729  21853.536172   -219.569794
PC27 -10237.188419 -19675.947183  16926.249250    241.565083
PC28    357.332317 -27766.435698   2771.413530    182.744616
PC29 -11819.537395  19890.427609  15600.270328    213.936234
PC30 -16012.688004   -767.739912  22838.302117    -10.297942
PC32 -20750.807205 -17979.116247   4987.563463   -542.327633
PC33  13597.764183  -9275.797736  22536.320471   -941.933722
PC34  16109.510239  -1031.494709 -22771.123983    323.929894
PC35    719.813162  27737.032080  -2799.721675    481.731853
PC36 -22900.421015  15143.422974   5061.447471    -94.930183
PC37 -12824.490755 -11402.787069 -22007.680672   -922.733020
PC38 -22220.459687  22844.626765 -27670.254956    123.757714
PC39 -15929.485005  38567.327012  -5027.550535     -6.081481
PC40  -5438.787247  27148.777295  31908.013348    -47.676570
PC41  -4438.596028 -19218.699995  19789.031039   -873.383531
PC42  24325.191371   6533.729079  12076.230343   -481.851682
PC43  12327.576039 -19123.939833 -16176.885482     52.120804
PC44  11023.670919  19392.080299 -16758.341708    321.463250
PC45  -6967.462477  18756.771354  19454.511349    -54.531633
PC46 -25438.333898   3469.157844 -11003.343796   -107.154527
PE02  12290.809665 -14220.114363 -22867.360569     86.248493
PE03   4308.179495 -22841.810295  18314.454588    -79.812140
PE04  10380.144399  27668.803545  -1647.887812   -279.055053
PE05  16357.632294  -4808.491397  24193.653585   4700.053025
PE07 -18866.851612 -16582.447667 -15658.445553    -92.798455
PE08 -10023.637583 -27758.531646   2232.727551   -191.495296
PE09  18770.594783  16734.928058  15615.256825   -261.338524
PE10   8416.663758  14718.015515 -24262.915568   -586.012070
PE11  16119.173520   4841.362464 -24352.671642   3263.180092
PE12    364.372376  21366.498371 -20471.453940   -816.913767
PE13 -15618.045400  -5511.118173  24542.578410    -19.679779
PE15    114.390280 -21627.946735  20222.209749    -74.469825
PE18  20262.961473  -1196.824897 -23200.408552     89.500701
PE19  -6079.950176  21120.407002 -19822.807687  -1024.495626
PE21 -27256.855218   3962.567182  10850.822814   -568.643456
PE24  26735.120494   9461.918933   8412.003715   -483.400352
PE25  27409.675864  -3713.918783 -10521.574496     -2.037361
PE26 -22061.565784  14073.834872  13850.332585    308.355946
PE27 -27013.920816  -9099.374421  -8009.257065   -223.045162
PE30 -10467.736501 -16784.127463 -22038.720351   -738.261152
PE31  10835.109199  16653.489758  21942.471356    -11.642483
PE33 -15927.153251  24704.142200  -3527.124150      4.110099
PE34  15505.754669 -24868.745574   4121.671164    -83.110788
PE36  21977.025598 -13587.633602 -14436.646699   -157.070882
PG01 -13483.718174  22218.225021  -4872.698921    163.914430
PG02 -16124.295385  20722.911134   3635.689109   -516.176549
PG03 -11687.052819  12322.816429 -20534.200792     51.380468
PG04  -3913.561086  20806.465931 -15945.509364    238.286883
PG05  22600.180133  -6631.466238  12191.445464   -153.953350
PG06  15001.496265   3759.396930 -21538.794966    479.318230
PG07    165.156438  20302.881418  17349.330368    -10.742154
PG08  -9525.742602  13808.934287  20411.014118   -156.743119
PG09   6077.965729  24969.370040  -6678.126808     25.415499
PG10 -21024.257176 -11009.869799  12456.348084    -65.131459
PG11  20044.838830  -6648.581861 -16051.815099   -498.956593
PG12  13142.447650 -11681.429769 -20166.155795   -456.960073
PG13  14616.826343  -3032.284933  21769.109693    605.167373
PG14  17822.068099  13366.400147  14617.407458    269.592135
PG15   8127.301986 -14925.351103  19874.292763    106.484068
PG16 -25724.711189   -439.916870   7173.215198   -405.000547
PG17  12706.131396  22074.199487  -6835.301789    722.059106
PG18   -499.346172 -19308.556071  18161.722845   -505.041428
PG19  15592.350029  15640.774114 -15196.438760    411.853062
PG20  26439.505713   -982.593993   -407.862699    396.879191
PG21 -17375.766903  18217.598886   7250.203485    141.668488
PG22  22327.708535  11256.174155   8950.102200     66.875177
PG23  -9435.327837 -14581.786389  20166.193648    115.287202
PG24  15207.099220 -21329.109882   2261.168113   -392.360289
PG25   -541.287296 -15668.825623 -21783.937829    481.295391
PG26 -26441.061391  -3287.289722  -2643.981124    209.595983
PG27 -16129.302658   -869.164173  20898.913619    -82.388999
PG28 -14004.197483  -6407.998493 -21662.110425    -68.955666
PG29  -3274.169967 -25297.195451  -7258.032309   -609.799178
PG30   9367.221089  13338.924585  21056.839228   -457.956142
PG31 -18826.085862   2064.143926 -18987.879665   -226.556381
PG32 -15791.383207 -18933.689835  -9961.624260   -595.841658
PJ02 -29576.605955  21877.844974  25685.407731     -0.542420
PJ03 -30796.883355  27498.107690  13445.529809    -11.788840
PJ04 -23892.441867  21410.393932 -22267.609795     74.109271
PR01 -10512.137565 -18765.245231  13707.501275     72.017847
PR02 -18951.871182 -16760.907807  -3504.040752    -22.342661
PR03 -16994.630120  -4602.358183 -18443.503975     90.824422
PR04  -5574.508158   9499.909272 -22979.915714    215.197418
PR05   8638.380276  18657.167117 -15068.514862    123.724252
PR07  16533.246341   3761.028053  19070.970155     71.235976
PR08   5393.387167  -9842.314835  22965.412990    -73.673451
PR09  17397.009331   4110.591622  18246.447710    158.467629
PR11  19160.713897 -11584.775241 -12226.747961   -220.902483
PR12    665.886229 -11511.290813 -22732.060306     34.411177
PR13 -15362.582012  -5341.363681 -19671.050174    -42.267108
PR14 -24681.011850   5351.500567  -3523.709077     25.743876
PR15 -18193.949109  11811.137682  13433.655823     83.985329
PR16   -950.968104  11451.110064  22774.173731     21.494782
PR17 -12007.039379   7051.544804  21397.727056     43.110442
PR18 -10536.215144  20960.499788   9979.516412    116.640919
PR19  -5234.044676  24437.710746  -5112.829264   -258.149119
PR20   5935.213159  12725.555040 -21269.148299   -105.084015
PR21  12022.160257  -7513.341045 -21190.261564    -60.644865
PR22  11002.746440 -21233.388650  -8860.159023     98.046514
PR24  -7137.601164 -12057.930198  21334.952277    -35.768785
PR26  12554.246738  -6457.572594 -21229.286646      0.621123
EOF
